IRIDIUM 39              
1 25042U 97069D   25281.15375861  .00000819  00000+0  20880-3 0  9996
2 25042  86.3964 162.7505 0015835 292.9452  67.0081 14.49375764465324
IRIDIUM 38              
1 25043U 97069E   25281.16258191  .00000647  00000+0  20671-3 0  9991
2 25043  86.4030 185.6644 0004138  85.6832 274.4839 14.38228423462195
IRIDIUM 42              
1 25077U 97077A   25281.16840296  .00000616  00000+0  20346-3 0  9995
2 25077  86.4034 191.9626 0002953  90.1378 270.0158 14.36456456457417
IRIDIUM 44              
1 25078U 97077B   25281.16518161  .00000594  00000+0  18124-3 0  9995
2 25078  86.4025 173.6153 0003400  53.7942 306.3571 14.40351145459968
IRIDIUM 45              
1 25104U 97082A   25281.16585567  .00029908  00000+0  95493-3 0  9999
2 25104  86.3611 352.8717 0104606 266.7062  92.2214 15.27071717469252
IRIDIUM 24              
1 25105U 97082B   25281.06176182  .00000865  00000+0  25628-3 0  9992
2 25105  86.3941  32.3967 0013342  69.4998 290.7633 14.42231581459485
IRIDIUM 51              
1 25262U 98018A   25281.15181767  .00080495  00000+0  12857-2 0  9997
2 25262  86.3842 359.5532 0070251 172.7749 187.4542 15.50053511464454
IRIDIUM 57              
1 25273U 98019B   25280.99287115  .00000538  00000+0  17858-3 0  9992
2 25273  86.3902  97.9753 0002237  88.0462 272.0991 14.35973620440975
